start=new Date('2022-02-07T00:00:00.000Z').valueOf();
sats=[{"FILE":"3293822","MEAN_MOTION_DOT":"0.00013748","SITE":"AFETR","OBJECT_NAME":"STARLINK-1129","RCS_SIZE":"LARGE","RA_OF_ASC_NODE":"138.2084","ECCENTRICITY":"0.00012250","PERIOD":"95.371","ARG_OF_PERICENTER":"86.9690","MEAN_MOTION_DDOT":"0.0000000000000","REV_AT_EPOCH":"11164","COUNTRY_CODE":"US","TLE_LINE1":"1 45046U 20006C   22037.76469644  .00013748  00000-0  85506-3 0  9997","APOAPSIS":"537.357","EPHEMERIS_TYPE":"0","TLE_LINE2":"2 45046  52.9969 138.2084 0001225  86.9690 273.1440 15.09899256111643","EPOCH":"2022-02-06T18:21:09.772416","OBJECT_TYPE":"PAYLOAD","DECAY_DATE":null,"BSTAR":"0.00085506000000","LAUNCH_DATE":"2020-01-29","INCLINATION":"52.9969","MEAN_MOTION":"15.09899256","MEAN_ELEMENT_THEORY":"SGP4","CENTER_NAME":"EARTH","OBJECT_ID":"2020-006C","PERIAPSIS":"535.663","TIME_SYSTEM":"UTC","MEAN_ANOMALY":"273.1440","ELEMENT_SET_NO":"999","NORAD_CAT_ID":"45046","SEMIMAJOR_AXIS":"6914.645","REF_FRAME":"TEME","GP_ID":"195440716","CLASSIFICATION_TYPE":"U"},{"CLASSIFICATION_TYPE":"U","GP_ID":"195440966","REF_FRAME":"TEME","SEMIMAJOR_AXIS":"6925.399","NORAD_CAT_ID":"45047","ELEMENT_SET_NO":"999","MEAN_ANOMALY":"278.4950","TIME_SYSTEM":"UTC","PERIAPSIS":"546.350","CENTER_NAME":"EARTH","OBJECT_ID":"2020-006D","MEAN_ELEMENT_THEORY":"SGP4","MEAN_MOTION":"15.06383654","LAUNCH_DATE":"2020-01-29","INCLINATION":"53.0544","BSTAR":"-0.00021463000000","DECAY_DATE":null,"OBJECT_TYPE":"PAYLOAD","EPOCH":"2022-02-06T18:25:18.183648","TLE_LINE2":"2 45047  53.0544 144.1234 0001319  81.6188 278.4950 15.06383654111591","EPHEMERIS_TYPE":"0","APOAPSIS":"548.177","TLE_LINE1":"1 45047U 20006D   22037.76757157 -.00003475  00000-0 -21463-3 0  9997","COUNTRY_CODE":"US","REV_AT_EPOCH":"11159","MEAN_MOTION_DDOT":"0.0000000000000","PERIOD":"95.593","ARG_OF_PERICENTER":"81.6188","ECCENTRICITY":"0.00013190","RA_OF_ASC_NODE":"144.1234","RCS_SIZE":"LARGE","SITE":"AFETR","OBJECT_NAME":"STARLINK-1131","MEAN_MOTION_DOT":"-0.00003475","FILE":"3293822"},{"OBJECT_ID":"2020-006E","MEAN_ELEMENT_THEORY":"SGP4","CENTER_NAME":"EARTH","INCLINATION":"53.0541","LAUNCH_DATE":"2020-01-29","BSTAR":"-0.00012525000000","MEAN_MOTION":"15.06396031","DECAY_DATE":null,"REF_FRAME":"TEME","GP_ID":"195410100","CLASSIFICATION_TYPE":"U","NORAD_CAT_ID":"45048","SEMIMAJOR_AXIS":"6925.361","PERIAPSIS":"546.304","TIME_SYSTEM":"UTC","ELEMENT_SET_NO":"999","MEAN_ANOMALY":"280.2602","ECCENTRICITY":"0.00013310","OBJECT_NAME":"STARLINK-1134","SITE":"AFETR","MEAN_MOTION_DOT":"-0.00002146","FILE":"3293555","RA_OF_ASC_NODE":"144.9733","RCS_SIZE":"LARGE","EPHEMERIS_TYPE":"0","EPOCH":"2022-02-06T13:49:17.165568","TLE_LINE2":"2 45048  53.0541 144.9733 0001331  79.8537 280.2602 15.06396031111567","APOAPSIS":"548.147","OBJECT_TYPE":"PAYLOAD","PERIOD":"95.592","ARG_OF_PERICENTER":"79.8537","TLE_LINE1":"1 45048U 20006E   22037.57589312 -.00002146  00000-0 -12525-3 0  9996","COUNTRY_CODE":"US","MEAN_MOTION_DDOT":"0.0000000000000","REV_AT_EPOCH":"11156"},{"TIME_SYSTEM":"UTC","PERIAPSIS":"546.191","ELEMENT_SET_NO":"999","MEAN_ANOMALY":"299.6341","CLASSIFICATION_TYPE":"U","REF_FRAME":"TEME","GP_ID":"195441469","SEMIMAJOR_AXIS":"6925.283","NORAD_CAT_ID":"45049","MEAN_MOTION":"15.06421232","INCLINATION":"53.0536","LAUNCH_DATE":"2020-01-29","BSTAR":"0.00060458000000","DECAY_DATE":null,"OBJECT_ID":"2020-006F","CENTER_NAME":"EARTH","MEAN_ELEMENT_THEORY":"SGP4","ARG_OF_PERICENTER":"60.4786","PERIOD":"95.591","COUNTRY_CODE":"US","TLE_LINE1":"1 45049U 20006F   22037.77860543  .00008740  00000-0  60458-3 0  9999","REV_AT_EPOCH":"11159","MEAN_MOTION_DDOT":"0.0000000000000","TLE_LINE2":"2 45049  53.0536 144.0754 0001383  60.4786 299.6341 15.06421232111594","EPOCH":"2022-02-06T18:41:11.509152","EPHEMERIS_TYPE":"0","APOAPSIS":"548.106","OBJECT_TYPE":"PAYLOAD","OBJECT_NAME":"STARLINK-1135","SITE":"AFETR","MEAN_MOTION_DOT":"0.00008740","FILE":"3293822","RA_OF_ASC_NODE":"144.0754","RCS_SIZE":"LARGE","ECCENTRICITY":"0.00013830"},{"ECCENTRICITY":"0.00012240","RCS_SIZE":"LARGE","RA_OF_ASC_NODE":"144.0348","FILE":"3293822","MEAN_MOTION_DOT":"-0.00006318","SITE":"AFETR","OBJECT_NAME":"STARLINK-1140","OBJECT_TYPE":"PAYLOAD","APOAPSIS":"548.144","EPOCH":"2022-02-06T18:51:49.946400","TLE_LINE2":"2 45050  53.0523 144.0348 0001224  79.7339 280.3788 15.06372878111595","EPHEMERIS_TYPE":"0","REV_AT_EPOCH":"11159","MEAN_MOTION_DDOT":"0.0000000000000","COUNTRY_CODE":"US","TLE_LINE1":"1 45050U 20006G   22037.78599475 -.00006318  00000-0 -40594-3 0  9995","ARG_OF_PERICENTER":"79.7339","PERIOD":"95.594","OBJECT_ID":"2020-006G","MEAN_ELEMENT_THEORY":"SGP4","CENTER_NAME":"EARTH","DECAY_DATE":null,"MEAN_MOTION":"15.06372878","INCLINATION":"53.0523","LAUNCH_DATE":"2020-01-29","BSTAR":"-0.00040594000000","SEMIMAJOR_AXIS":"6925.432","NORAD_CAT_ID":"45050","CLASSIFICATION_TYPE":"U","REF_FRAME":"TEME","GP_ID":"195440217","MEAN_ANOMALY":"280.3788","ELEMENT_SET_NO":"999","TIME_SYSTEM":"UTC","PERIAPSIS":"546.449"},{"SITE":"AFETR","MEAN_MOTION_DOT":"0.00014044","OBJECT_NAME":"STARLINK-1141","FILE":"3293555","RA_OF_ASC_NODE":"144.2819","RCS_SIZE":"LARGE","ECCENTRICITY":"0.00013390","PERIOD":"95.486","ARG_OF_PERICENTER":"91.6990","TLE_LINE1":"1 45051U 20006H   22037.59109824  .00014044  00000-0  91764-3 0  9998","COUNTRY_CODE":"US","REV_AT_EPOCH":"11157","MEAN_MOTION_DDOT":"0.0000000000000","EPOCH":"2022-02-06T14:11:10.887936","TLE_LINE2":"2 45051  53.0523 144.2819 0001339  91.6990 268.4153 15.08068822111578","EPHEMERIS_TYPE":"0","APOAPSIS":"543.030","OBJECT_TYPE":"PAYLOAD","MEAN_MOTION":"15.08068822","BSTAR":"0.00091764000000","LAUNCH_DATE":"2020-01-29","INCLINATION":"53.0523","DECAY_DATE":null,"MEAN_ELEMENT_THEORY":"SGP4","CENTER_NAME":"EARTH","OBJECT_ID":"2020-006H","PERIAPSIS":"541.177","TIME_SYSTEM":"UTC","ELEMENT_SET_NO":"999","MEAN_ANOMALY":"268.4153","CLASSIFICATION_TYPE":"U","REF_FRAME":"TEME","GP_ID":"195409850","SEMIMAJOR_AXIS":"6920.239","NORAD_CAT_ID":"45051"},{"SITE":"AFETR","MEAN_MOTION_DOT":"-0.00000138","OBJECT_NAME":"STARLINK-1148","FILE":"3293822","RA_OF_ASC_NODE":"144.0024","RCS_SIZE":"LARGE","ECCENTRICITY":"0.00013720","ARG_OF_PERICENTER":"88.3741","PERIOD":"95.592","COUNTRY_CODE":"US","TLE_LINE1":"1 45052U 20006J   22037.79335392 -.00000138  00000-0  96048-5 0  9994","REV_AT_EPOCH":"11159","MEAN_MOTION_DDOT":"0.0000000000000","EPOCH":"2022-02-06T19:02:25.778688","TLE_LINE2":"2 45052  53.0538 144.0024 0001372  88.3741 271.7405 15.06401707111595","EPHEMERIS_TYPE":"0","APOAPSIS":"548.158","OBJECT_TYPE":"PAYLOAD","MEAN_MOTION":"15.06401707","INCLINATION":"53.0538","LAUNCH_DATE":"2020-01-29","BSTAR":"0.00000960480000","DECAY_DATE":null,"CENTER_NAME":"EARTH","OBJECT_ID":"2020-006J","MEAN_ELEMENT_THEORY":"SGP4","PERIAPSIS":"546.258","TIME_SYSTEM":"UTC","ELEMENT_SET_NO":"999","MEAN_ANOMALY":"271.7405","CLASSIFICATION_TYPE":"U","REF_FRAME":"TEME","GP_ID":"195441219","SEMIMAJOR_AXIS":"6925.343","NORAD_CAT_ID":"45052"},{"DECAY_DATE":null,"MEAN_MOTION":"15.08753977","BSTAR":"0.00104320000000","LAUNCH_DATE":"2020-01-29","INCLINATION":"53.0002","OBJECT_ID":"2020-006K","CENTER_NAME":"EARTH","MEAN_ELEMENT_THEORY":"SGP4","MEAN_ANOMALY":"239.8649","ELEMENT_SET_NO":"999","PERIAPSIS":"538.544","TIME_SYSTEM":"UTC","SEMIMAJOR_AXIS":"6918.143","NORAD_CAT_ID":"45053","CLASSIFICATION_TYPE":"U","REF_FRAME":"TEME","GP_ID":"195409348","RCS_SIZE":"LARGE","RA_OF_ASC_NODE":"141.6226","FILE":"3293555","MEAN_MOTION_DOT":"0.00016316","SITE":"AFETR","OBJECT_NAME":"STARLINK-1155","ECCENTRICITY":"0.00021160","REV_AT_EPOCH":"11158","MEAN_MOTION_DDOT":"0.0000000000000","TLE_LINE1":"1 45053U 20006K   22037.57558808  .00016316  00000-0  10432-2 0  9994","COUNTRY_CODE":"US","PERIOD":"95.443","ARG_OF_PERICENTER":"120.2550","OBJECT_TYPE":"PAYLOAD","APOAPSIS":"541.472","EPOCH":"2022-02-06T13:48:50.810112","TLE_LINE2":"2 45053  53.0002 141.6226 0002116 120.2550 239.8649 15.08753977111585","EPHEMERIS_TYPE":"0"},{"DECAY_DATE":null,"MEAN_MOTION":"15.06381691","INCLINATION":"53.0557","LAUNCH_DATE":"2020-01-29","BSTAR":"-0.00021544000000","CENTER_NAME":"EARTH","OBJECT_ID":"2020-006L","MEAN_ELEMENT_THEORY":"SGP4","MEAN_ANOMALY":"284.0027","ELEMENT_SET_NO":"999","PERIAPSIS":"546.268","TIME_SYSTEM":"UTC","SEMIMAJOR_AXIS":"6925.405","NORAD_CAT_ID":"45054","CLASSIFICATION_TYPE":"U","REF_FRAME":"TEME","GP_ID":"195440717","RCS_SIZE":"LARGE","RA_OF_ASC_NODE":"144.6285","FILE":"3293822","OBJECT_NAME":"STARLINK-1156","SITE":"AFETR","MEAN_MOTION_DOT":"-0.00003487","ECCENTRICITY":"0.00014470","REV_AT_EPOCH":"11157","MEAN_MOTION_DDOT":"0.0000000000000","TLE_LINE1":"1 45054U 20006L   22037.65699637 -.00003487  00000-0 -21544-3 0  9994","COUNTRY_CODE":"US","ARG_OF_PERICENTER":"76.1123","PERIOD":"95.593","OBJECT_TYPE":"PAYLOAD","APOAPSIS":"548.272","EPOCH":"2022-02-06T15:46:04.486368","TLE_LINE2":"2 45054  53.0557 144.6285 0001447  76.1123 284.0027 15.06381691111579","EPHEMERIS_TYPE":"0"},{"NORAD_CAT_ID":"45057","SEMIMAJOR_AXIS":"6925.414","GP_ID":"195440967","REF_FRAME":"TEME","CLASSIFICATION_TYPE":"U","TIME_SYSTEM":"UTC","PERIAPSIS":"546.369","MEAN_ANOMALY":"270.5642","ELEMENT_SET_NO":"999","OBJECT_ID":"2020-006P","MEAN_ELEMENT_THEORY":"SGP4","CENTER_NAME":"EARTH","DECAY_DATE":null,"INCLINATION":"53.0539","LAUNCH_DATE":"2020-01-29","BSTAR":"-0.00014903000000","MEAN_MOTION":"15.06378580","APOAPSIS":"548.190","EPHEMERIS_TYPE":"0","EPOCH":"2022-02-06T19:18:22.776192","TLE_LINE2":"2 45057  53.0539 143.9416 0001315  89.5498 270.5642 15.06378580111607","OBJECT_TYPE":"PAYLOAD","ARG_OF_PERICENTER":"89.5498","PERIOD":"95.593","MEAN_MOTION_DDOT":"0.0000000000000","REV_AT_EPOCH":"11160","COUNTRY_CODE":"US","TLE_LINE1":"1 45057U 20006P   22037.80443028 -.00002499  00000-0 -14903-3 0  9998","ECCENTRICITY":"0.00013150","FILE":"3293822","MEAN_MOTION_DOT":"-0.00002499","SITE":"AFETR","OBJECT_NAME":"STARLINK-1159","RCS_SIZE":"LARGE","RA_OF_ASC_NODE":"143.9416"}];
